{
    "links": {
        "self": "http://www.neowsapp.com/rest/v1/neo/3545632?api_key=iIulBulltgU6a56xZRHN4H3l9WmuAYTsLGpBGhQ2"
    },
    "id": "3545632",
    "neo_reference_id": "3545632",
    "name": "(2010 RG31)",
    "designation": "2010 RG31",
    "nasa_jpl_url": "http://ssd.jpl.nasa.gov/sbdb.cgi?sstr=3545632",
    "absolute_magnitude_h": 22.6,
    "estimated_diameter": {
        "kilometers": {
            "estimated_diameter_min": 0.0802703167,
            "estimated_diameter_max": 0.1794898848
        },
        "meters": {
            "estimated_diameter_min": 80.2703167283,
            "estimated_diameter_max": 179.4898847799
        },
        "miles": {
            "estimated_diameter_min": 0.049877647,
            "estimated_diameter_max": 0.1115298092
        },
        "feet": {
            "estimated_diameter_min": 263.3540659348,
            "estimated_diameter_max": 588.8775935812
        }
    },
    "is_potentially_hazardous_asteroid": false,
    "close_approach_data": [
        {
            "close_approach_date": "2010-01-27",
            "close_approach_date_full": "2010-Jan-27 12:12",
            "epoch_date_close_approach": 1264594320000,
            "relative_velocity": {
                "kilometers_per_second": "9.8188515395",
                "kilometers_per_hour": "35347.8655421565",
                "miles_per_hour": "21963.7890086806"
            },
            "miss_distance": {
                "astronomical": "0.1706163023",
                "lunar": "66.3697415947",
                "kilometers": "25523835.411356101",
                "miles": "15859775.8970361538"
            },
            "orbiting_body": "Earth"
        },
        {
            "close_approach_date": "2010-08-25",
            "close_approach_date_full": "2010-Aug-25 12:55",
            "epoch_date_close_approach": 1282740900000,
            "relative_velocity": {
                "kilometers_per_second": "8.3568192684",
                "kilometers_per_hour": "30084.5493663373",
                "miles_per_hour": "18693.3690215444"
            },
            "miss_distance": {
                "astronomical": "0.2885483319",
                "lunar": "112.2453011091",
                "kilometers": "43166215.844293053",
                "miles": "26822242.7617200114"
            },
            "orbiting_body": "Earth"
        },
        {
            "close_approach_date": "2026-06-21",
            "close_approach_date_full": "2026-Jun-21 01:47",
            "epoch_date_close_approach": 1782006420000,
            "relative_velocity": {
                "kilometers_per_second": "16.156838861",
                "kilometers_per_hour": "58164.619899663",
                "miles_per_hour": "36141.23284821"
            },
            "miss_distance": {
                "astronomical": "0.4400117177",
                "lunar": "171.1645581853",
                "kilometers": "65824815.742961299",
                "miles": "40901643.8682479662"
            },
            "orbiting_body": "Earth"
        }
    ],
    "orbital_data": {
        "orbit_id": "9",
        "orbit_determination_date": "2017-04-06 08:56:49",
        "first_observation_date": "2010-09-05",
        "last_observation_date": "2010-09-12",
        "data_arc_in_days": 7,
        "observations_used": 28,
        "orbit_uncertainty": "8",
        "minimum_orbit_intersection": ".101618",
        "jupiter_tisserand_invariant": "5.613",
        "epoch_osculation": "2455446.5",
        "eccentricity": ".1912432693494592",
        "semi_major_axis": "1.099086421511335",
        "inclination": "13.06778121032065",
        "ascending_node_longitude": "343.9799028058414",
        "orbital_period": "420.8682756501435",
        "perihelion_distance": ".8888935409639096",
        "perihelion_argument": "187.6267847378521",
        "aphelion_distance": "1.309279302058761",
        "perihelion_time": "2455254.345562889858",
        "mean_anomaly": "164.3640097434071",
        "mean_motion": ".8553745217405229",
        "equinox": "J2000",
        "orbit_class": {
            "orbit_class_type": "APO",
            "orbit_class_description": "Near-Earth asteroid orbits which cross the Earth’s orbit similar to that of 1862 Apollo",
            "orbit_class_range": "a (semi-major axis) > 1.0 AU; q (perihelion) < 1.017 AU"
        }
    },
    "is_sentry_object": false
}